[{"OBJECT_NAME":"STARLINK-6178","OBJECT_ID":"2023-061P","EPOCH":"2026-03-09T22:00:01.999584","MEAN_MOTION":15.117437,"ECCENTRICITY":0.00016359,"INCLINATION":43.0005,"RA_OF_ASC_NODE":195.5801,"ARG_OF_PERICENTER":301.8014,"MEAN_ANOMALY":159.6262,"EPHEMERIS_TYPE":0,"CLASSIFICATION_TYPE":"U","NORAD_CAT_ID":56387,"ELEMENT_SET_NO":999,"REV_AT_EPOCH":578,"BSTAR":0.072717287,"MEAN_MOTION_DOT":0.0137484,"MEAN_MOTION_DDOT":0},{"OBJECT_NAME":"OBJECT B","OBJECT_ID":"2026-027B","EPOCH":"2026-03-09T21:35:20.668992","MEAN_MOTION":15.17815947,"ECCENTRICITY":0.00102981,"INCLINATION":97.4898,"RA_OF_ASC_NODE":197.9122,"ARG_OF_PERICENTER":196.2876,"MEAN_ANOMALY":163.8028,"EPHEMERIS_TYPE":0,"CLASSIFICATION_TYPE":"U","NORAD_CAT_ID":67747,"ELEMENT_SET_NO":999,"REV_AT_EPOCH":389,"BSTAR":0.00052180304,"MEAN_MOTION_DOT":0.00010507,"MEAN_MOTION_DDOT":0}]
